STARLINK-2635_new
1 18355C 21038C   21326.12535339 -.00014356  00000-0 -96190-3 0  3267
2 18355  53.0541 203.1830 0002155  70.6445 134.3633 15.06411352    13
STARLINK-2635_old
1 28355C 21038C   21325.12171637  .00010884  00000-0  72950-3 0  3250
2 28355  53.0543 207.6827 0002337  68.0235  91.1995 15.06374059    13
